{
  "type": "FeatureCollection",
  "features": [
    {
      "type": "Feature",
      "properties": {
        "norad_id": 31776,
        "name": "FENGYUN 1C DEB",
        "group": "fengyun-1c-debris",
        "lat": 34.5541260881676,
        "lon": -129.6696721875506,
        "alt_km": 865.5391680685834,
        "timestamp": "2025-12-10T07:43:55.063245+00:00",
        "meta_object_name": "FENGYUN 1C DEB",
        "meta_object_id": "1999-025CGB",
        "meta_epoch": "2025-12-07T03:00:47.329920",
        "meta_mean_motion": 14.18505117,
        "meta_eccentricity": 0.00544535,
        "meta_inclination": 99.0754,
        "meta_ra_of_asc_node": 40.7419,
        "meta_arg_of_pericenter": 350.7961,
        "meta_mean_anomaly": 38.8915,
        "meta_ephemeris_type": 0,
        "meta_classification_type": "U",
        "meta_norad_cat_id": 31776,
        "meta_element_set_no": 999,
        "meta_rev_at_epoch": 94801,
        "meta_bstar": 0.0021272928,
        "meta_mean_motion_dot": 4.419e-05,
        "meta_mean_motion_ddot": 0,
        "tle_line1": "1 31776U 99025CGB 25341.12554780  .00004419  00000+0  21273-2 0  9990",
        "tle_line2": "2 31776  99.0754  40.7419 0054453 350.7961  38.8915 14.18505117948016"
      },
      "geometry": {
        "type": "Point",
        "coordinates": [
          -129.6696721875506,
          34.5541260881676
        ]
      }
    },
    {
      "type": "Feature",
      "properties": {
        "norad_id": 31779,
        "name": "FENGYUN 1C DEB",
        "group": "fengyun-1c-debris",
        "lat": -66.33658108524024,
        "lon": 62.12243002817842,
        "alt_km": 677.7617408173946,
        "timestamp": "2025-12-10T07:43:55.063255+00:00",
        "meta_object_name": "FENGYUN 1C DEB",
        "meta_object_id": "1999-025CGE",
        "meta_epoch": "2025-12-09T12:16:05.170944",
        "meta_mean_motion": 14.41586265,
        "meta_eccentricity": 0.021314,
        "meta_inclination": 99.298,
        "meta_ra_of_asc_node": 263.1933,
        "meta_arg_of_pericenter": 192.3913,
        "meta_mean_anomaly": 167.1985,
        "meta_ephemeris_type": 0,
        "meta_classification_type": "U",
        "meta_norad_cat_id": 31779,
        "meta_element_set_no": 999,
        "meta_rev_at_epoch": 96963,
        "meta_bstar": 0.00045665,
        "meta_mean_motion_dot": 1.887e-05,
        "meta_mean_motion_ddot": 0,
        "tle_line1": "1 31779U 99025CGE 25343.51117096  .00001887  00000+0  45665-3 0  9991",
        "tle_line2": "2 31779  99.2980 263.1933 0213140 192.3913 167.1985 14.41586265969634"
      },
      "geometry": {
        "type": "Point",
        "coordinates": [
          62.12243002817842,
          -66.33658108524024
        ]
      }
    },
    {
      "type": "Feature",
      "properties": {
        "norad_id": 31780,
        "name": "FENGYUN 1C DEB",
        "group": "fengyun-1c-debris",
        "lat": -37.245461741760614,
        "lon": 143.76839391073108,
        "alt_km": 682.7629318987756,
        "timestamp": "2025-12-10T07:43:55.063265+00:00",
        "meta_object_name": "FENGYUN 1C DEB",
        "meta_object_id": "1999-025CGF",
        "meta_epoch": "2025-12-09T05:45:24.780960",
        "meta_mean_motion": 14.6951869,
        "meta_eccentricity": 0.0150948,
        "meta_inclination": 99.286,
        "meta_ra_of_asc_node": 135.3927,
        "meta_arg_of_pericenter": 63.9247,
        "meta_mean_anomaly": 297.7403,
        "meta_ephemeris_type": 0,
        "meta_classification_type": "U",
        "meta_norad_cat_id": 31780,
        "meta_element_set_no": 999,
        "meta_rev_at_epoch": 98446,
        "meta_bstar": 0.00044259,
        "meta_mean_motion_dot": 3.056e-05,
        "meta_mean_motion_ddot": 0,
        "tle_line1": "1 31780U 99025CGF 25343.23987015  .00003056  00000+0  44259-3 0  9996",
        "tle_line2": "2 31780  99.2860 135.3927 0150948  63.9247 297.7403 14.69518690984465"
      },
      "geometry": {
        "type": "Point",
        "coordinates": [
          143.76839391073108,
          -37.245461741760614
        ]
      }
    },
    {
      "type": "Feature",
      "properties": {
        "norad_id": 31781,
        "name": "FENGYUN 1C DEB",
        "group": "fengyun-1c-debris",
        "lat": -41.833487508541644,
        "lon": -33.54603407118591,
        "alt_km": 775.8936639007243,
        "timestamp": "2025-12-10T07:43:55.063275+00:00",
        "meta_object_name": "FENGYUN 1C DEB",
        "meta_object_id": "1999-025CGG",
        "meta_epoch": "2025-12-09T06:52:06.193920",
        "meta_mean_motion": 14.12885604,
        "meta_eccentricity": 0.0203697,
        "meta_inclination": 99.4979,
        "meta_ra_of_asc_node": 153.9738,
        "meta_arg_of_pericenter": 283.3787,
        "meta_mean_anomaly": 74.4748,
        "meta_ephemeris_type": 0,
        "meta_classification_type": "U",
        "meta_norad_cat_id": 31781,
        "meta_element_set_no": 999,
        "meta_rev_at_epoch": 68299,
        "meta_bstar": 0.004746,
        "meta_mean_motion_dot": 0.0001072,
        "meta_mean_motion_ddot": 0,
        "tle_line1": "1 31781U 99025CGG 25343.28618280  .00010720  00000+0  47460-2 0  9999",
        "tle_line2": "2 31781  99.4979 153.9738 0203697 283.3787  74.4748 14.12885604682997"
      },
      "geometry": {
        "type": "Point",
        "coordinates": [
          -33.54603407118591,
          -41.833487508541644
        ]
      }
    },
    {
      "type": "Feature",
      "properties": {
        "norad_id": 31782,
        "name": "FENGYUN 1C DEB",
        "group": "fengyun-1c-debris",
        "lat": 54.99572114184045,
        "lon": -21.63460911089168,
        "alt_km": 793.6812735618514,
        "timestamp": "2025-12-10T07:43:55.063285+00:00",
        "meta_object_name": "FENGYUN 1C DEB",
        "meta_object_id": "1999-025CGH",
        "meta_epoch": "2025-12-08T16:46:19.717248",
        "meta_mean_motion": 14.36221911,
        "meta_eccentricity": 0.00796709,
        "meta_inclination": 98.9039,
        "meta_ra_of_asc_node": 143.7533,
        "meta_arg_of_pericenter": 8.9177,
        "meta_mean_anomaly": 5.7329,
        "meta_ephemeris_type": 0,
        "meta_classification_type": "U",
        "meta_norad_cat_id": 31782,
        "meta_element_set_no": 999,
        "meta_rev_at_epoch": 96633,
        "meta_bstar": 0.0006706212,
        "meta_mean_motion_dot": 1.982e-05,
        "meta_mean_motion_ddot": 0,
        "tle_line1": "1 31782U 99025CGH 25342.69883932  .00001982  00000+0  67062-3 0  9993",
        "tle_line2": "2 31782  98.9039 143.7533 0079670   8.9177   5.7329 14.36221911966331"
      },
      "geometry": {
        "type": "Point",
        "coordinates": [
          -21.63460911089168,
          54.99572114184045
        ]
      }
    },
    {
      "type": "Feature",
      "properties": {
        "norad_id": 31783,
        "name": "FENGYUN 1C DEB",
        "group": "fengyun-1c-debris",
        "lat": -76.56469138491603,
        "lon": 133.7570262900027,
        "alt_km": 940.2908513552693,
        "timestamp": "2025-12-10T07:43:55.063295+00:00",
        "meta_object_name": "FENGYUN 1C DEB",
        "meta_object_id": "1999-025CGJ",
        "meta_epoch": "2025-12-09T19:23:45.829248",
        "meta_mean_motion": 14.08820049,
        "meta_eccentricity": 0.0104416,
        "meta_inclination": 98.6045,
        "meta_ra_of_asc_node": 352.5993,
        "meta_arg_of_pericenter": 58.2322,
        "meta_mean_anomaly": 116.4574,
        "meta_ephemeris_type": 0,
        "meta_classification_type": "U",
        "meta_norad_cat_id": 31783,
        "meta_element_set_no": 999,
        "meta_rev_at_epoch": 89179,
        "meta_bstar": 0.00080306,
        "meta_mean_motion_dot": 1.417e-05,
        "meta_mean_motion_ddot": 0,
        "tle_line1": "1 31783U 99025CGJ 25343.80816932  .00001417  00000+0  80306-3 0  9993",
        "tle_line2": "2 31783  98.6045 352.5993 0104416  58.2322 116.4574 14.08820049891798"
      },
      "geometry": {
        "type": "Point",
        "coordinates": [
          133.7570262900027,
          -76.56469138491603
        ]
      }
    },
    {
      "type": "Feature",
      "properties": {
        "norad_id": 31788,
        "name": "FENGYUN 1C DEB",
        "group": "fengyun-1c-debris",
        "lat": 63.37499481924477,
        "lon": -26.908947391090496,
        "alt_km": 759.794168059354,
        "timestamp": "2025-12-10T07:43:55.063316+00:00",
        "meta_object_name": "FENGYUN 1C DEB",
        "meta_object_id": "1999-025CGP",
        "meta_epoch": "2025-12-07T06:34:14.280960",
        "meta_mean_motion": 13.45050768,
        "meta_eccentricity": 0.04634358,
        "meta_inclination": 102.5565,
        "meta_ra_of_asc_node": 122.8838,
        "meta_arg_of_pericenter": 98.8989,
        "meta_mean_anomaly": 18.5526,
        "meta_ephemeris_type": 0,
        "meta_classification_type": "U",
        "meta_norad_cat_id": 31788,
        "meta_element_set_no": 999,
        "meta_rev_at_epoch": 90531,
        "meta_bstar": 0.0038627259,
        "meta_mean_motion_dot": 4.296e-05,
        "meta_mean_motion_ddot": 0,
        "tle_line1": "1 31788U 99025CGP 25341.27377640  .00004296  00000+0  38627-2 0  9991",
        "tle_line2": "2 31788 102.5565 122.8838 0463435  98.8989  18.5526 13.45050768905315"
      },
      "geometry": {
        "type": "Point",
        "coordinates": [
          -26.908947391090496,
          63.37499481924477
        ]
      }
    }
  ]
}